lat=0
lon=0
alt=0
tle_line1="1 99971U 00000    18140.91308873 -.00092210  00000-0 -24572+2 0 00008"
tle_line2="2 99971 028.3228 205.3120 9633787 173.0988 004.2094 00.10982076000017"
